FENGYUN 4B
1 48808U 21047A   21179.92803759 -.00000367  00000-0  00000-0 0  9992
2 48808   0.0541 226.6478 0000694 252.0694 256.3446  1.00272877   387